[
    {
        "Altitude(m)": 605459.0200933682,
        "Argument of Periapsis(deg)": 0.0,
        "Eccentricity": 0.0,
        "Inclination(deg)": 60.0,
        "Latitude(deg)": 27.988185738795956,
        "Longitude(deg)": -147.20136760311667,
        "Mean Anomaly(deg)": 32.72730000000001,
        "RAAN(deg)": 295.00000000000006,
        "Satellite Name": "Test1 1300",
        "Satellite Number": 1300,
        "Semi-Major Axis(m)": 6980739.136638005,
        "Time(s)": 0
    },
    {
        "Altitude(m)": 605535.8108329901,
        "Argument of Periapsis(deg)": 0.00010418945913296404,
        "Eccentricity": 0.0,
        "Inclination(deg)": 60.0,
        "Latitude(deg)": 28.501314687415757,
        "Longitude(deg)": -146.84442158711235,
        "Mean Anomaly(deg)": 33.34740614546182,
        "RAAN(deg)": 294.99957995086027,
        "Satellite Name": "Test1 1300",
        "Satellite Number": 1300,
        "Semi-Major Axis(m)": 6980739.136638005,
        "Time(s)": 10
    }
]